satname,norad_id,inclination_deg,eccentricity,mean_motion_rev_per_day,perigee_km,apogee_km,l1,l2
STARLINK-1392,45677,53.0544,0.0001295,15.06404393,546.3012631640258,548.094924953386,1 45677U 20035W   25268.70755922  .00002502  00000+0  18676-3 0  9998,2 45677  53.0544  87.2519 0001295  86.4491 273.6646 15.06404393293860
STARLINK-1394,45679,53.054,0.0001162,15.06402933,546.3978442724056,548.0072931881778,1 45679U 20035Y   25269.16921727  .00001239  00000+0  10205-3 0  9995,2 45679  53.0540  75.1782 0001162  91.5121 268.6001 15.06402933294077
STARLINK-1402,45685,53.0549,0.0001388,15.06412993,546.210503698202,548.1329694034694,1 45685U 20035AE  25268.66923003  .00001765  00000+0  13730-3 0  9995,2 45685  53.0549  71.8444 0001388  97.8158 262.2988 15.06412993294082
STARLINK-1404,45686,53.0553,0.0001389,15.06405967,546.2313416285451,548.1551983775535,1 45686U 20035AF  25268.73059640  .00000175  00000+0  30660-4 0  9997,2 45686  53.0553  77.1510 0001389  89.0844 271.0304 15.06405967294013
STARLINK-1413,45689,53.0533,0.0001295,15.06394008,546.3330875996671,548.1267576326236,1 45689U 20035AJ  25268.88171652 -.00000536  00000+0 -17074-4 0  9991,2 45689  53.0533  76.4670 0001295  91.2466 268.8671 15.06394008293949
STARLINK-1417,45693,53.0539,0.0001412,15.06409549,546.204436699184,548.1601468671834,1 45693U 20035AN  25268.74533519  .00002750  00000+0  20337-3 0  9998,2 45693  53.0539  77.0846 0001412  88.1292 271.9859 15.06409549294003
STARLINK-1420,45695,53.0517,6.42e-05,15.06401106,546.7635610498464,547.6527753694436,1 45695U 20035AQ  25269.14430829  .00001655  00000+0  12996-3 0  9990,2 45695  53.0517  55.2820 0000642 109.6227 250.4832 15.06401106294354
STARLINK-1422,45696,53.0541,0.0001227,15.06407457,546.3389659377535,548.0384408653672,1 45696U 20035AR  25268.69005344  .00001139  00000+0  95341-4 0  9993,2 45696  53.0541  77.3331 0001227  88.5926 271.5203 15.06407457293995
STARLINK-1351,45697,53.0561,0.0001262,15.0639812,546.3433401583325,548.0912995886674,1 45697U 20035AS  25268.66609053  .00000003  00000+0  19076-4 0  9998,2 45697  53.0561  57.4368 0001262 100.8853 259.2279 15.06398120294288
STARLINK-1398,45699,53.0531,0.0003922,15.43722912,432.4609646347444,437.8052937240727,1 45699U 20035AU  25266.64720583  .00048049  00000+0  10499-2 0  9998,2 45699  53.0531  36.9460 0003922 172.3023 187.8043 15.43722912294398
STARLINK-1400,45700,53.0548,0.0001326,15.06363609,546.4047773489929,548.2414093657508,1 45700U 20035AV  25268.70665032 -.00008049  00000+0 -52256-3 0  9993,2 45700  53.0548  57.2568 0001326  82.2770 277.8370 15.06363609294282
STARLINK-1403,45701,53.0547,8.3e-05,15.06365686,546.7419147431456,547.8915400618944,1 45701U 20035AW  25268.60343785 -.00006237  00000+0 -40058-3 0  9995,2 45701  53.0547  57.7186 0000830  46.2469 313.8588 15.06365686294264
STARLINK-1407,45703,53.0434,0.0008954,15.35579394,453.077924858444,465.32222809499854,1 45703U 20035AY  25269.25003472  .00099091  00000+0  27951-2 0  9999,2 45703  53.0434  21.3126 0008954 265.6521   5.0251 15.35579394  5928
STARLINK-1411,45706,53.0549,5.61e-05,15.30026566,475.348458892312,476.11746310193485,1 45706U 20035BB  25269.25003472  .00185761  00000+0  61613-2 0  9995,2 45706  53.0549  47.7847 0000561  44.2853 129.2475 15.30026566  5846
STARLINK-1423,45710,53.0561,0.0001354,15.06426191,546.1936061323677,548.0689687846107,1 45710U 20035BF  25268.69557586  .00009046  00000+0  62493-3 0  9996,2 45710  53.0561  57.3080 0001354  83.7283 276.3860 15.06426191294288
STARLINK-1433,45711,53.0536,0.0001259,15.06398576,546.3440203637056,548.0878242295403,1 45711U 20035BG  25268.67715068  .00004329  00000+0  30937-3 0  9993,2 45711  53.0536  57.3877 0001259  82.7797 277.3335 15.06398576294270
STARLINK-1434,45712,53.0532,0.0002442,15.11871141,528.8067987678824,532.1809740928147,1 45712U 20035BH  25268.68284731  .00067309  00000+0  38699-2 0  9992,2 45712  53.0532  55.3721 0002442 123.3413 236.7813 15.11871141294310
STARLINK-1465,45731,53.0529,0.0001318,15.06404468,546.2851050605332,548.1106233307346,1 45731U 20038B   25269.17475449  .00004241  00000+0  30336-3 0  9996,2 45731  53.0529 255.1550 0001318  85.4387 274.6753 15.06404468291393
STARLINK-1471,45735,53.0508,0.0003819,15.38949939,446.6058270274143,451.8205571041153,1 45735U 20038F   25269.11850525  .00126492  00000+0  31886-2 0  9999,2 45735  53.0508 204.0747 0003819  79.0151 281.1281 15.38949939292113
STARLINK-1474,45738,53.039,0.0006348,15.61010945,380.44257584350817,389.02871895664794,1 45738U 20038J   25268.93079312  .00079397  00000+0  92407-3 0  9996,2 45738  53.0390 168.4927 0006348 132.8497 227.3050 15.61010945292599
STARLINK-1475,45739,53.0526,0.0007882,15.60904341,379.7128244535452,390.3743022936469,1 45739U 20038K   25269.25003472  .00144240  00000+0  16665-2 0  9998,2 45739  53.0526 134.6469 0007882 104.6415 351.6601 15.60904341  5976
STARLINK-1480,45741,53.0529,0.0001412,15.06389684,546.2653114921986,548.2210388536678,1 45741U 20038M   25268.36016779 -.00000018  00000+0  17714-4 0  9999,2 45741  53.0529 258.8138 0001412  91.7031 268.4120 15.06389684291286
STARLINK-1500,45744,53.0372,0.000558,15.25537906,485.3387224647795,493.00263783582795,1 45744U 20038Q   25269.21133961  .00028568  00000+0  11205-2 0  9996,2 45744  53.0372 238.8396 0005580  85.1190 275.0444 15.25537906291637
STARLINK-1504,45746,53.0302,0.0006517,15.3548137,455.03498487884735,463.94714930149166,1 45746U 20038S   25269.01964799  .00043409  00000+0  12442-2 0  9992,2 45746  53.0302 207.1799 0006517  56.6843 303.4782 15.35481370292059
STARLINK-1506,45747,53.0548,0.0004848,15.1981546,503.06022711099195,509.73547210116976,1 45747U 20038T   25268.96368174  .00011336  00000+0  53650-3 0  9992,2 45747  53.0548 240.9468 0004848 104.8543 255.2990 15.19815460291583
STARLINK-1464,45751,53.0538,0.0001634,15.06393401,546.1001777375377,548.3633882558206,1 45751U 20038X   25268.62738917 -.00001297  00000+0 -68182-4 0  9990,2 45751  53.0538 237.6119 0001634  93.3292 266.7884 15.06393401291600
STARLINK-1477,45754,53.0535,0.0001435,15.06402118,546.211279994378,548.198853167487,1 45754U 20038AA  25269.17291373  .00008770  00000+0  60686-3 0  9995,2 45754  53.0535 235.1623 0001435  86.0652 274.0501 15.06402118291683
STARLINK-1478,45755,53.0543,0.0001369,15.06409747,546.2336088202092,548.1297610761476,1 45755U 20038AB  25269.19133166  .00000668  00000+0  63737-4 0  9992,2 45755  53.0543 235.0826 0001369  96.3505 263.7640 15.06409747291677
